ONEWEB-0642             
1 55806U 23029L   26072.64490992  .00000039  00000+0  64320-4 0  9990
2 55806  87.9224 324.0173 0002414  95.1966 264.9442 13.19723717146301
ONEWEB-0643             
1 55807U 23029M   26072.61628211 -.00000044  00000+0 -15277-3 0  9999
2 55807  87.8976 308.8100 0002316  87.8896 272.2499 13.14502815146837
ONEWEB-0644             
1 55808U 23029N   26072.64017728  .00000074  00000+0  15333-3 0  9992
2 55808  87.9213 324.0256 0002028  86.8385 273.2980 13.19724822146304
ONEWEB-0645             
1 55809U 23029P   26072.20738188  .00000098  00000+0  21224-3 0  9997
2 55809  87.9224 324.1037 0001748  98.0097 262.1234 13.19725607146242
ONEWEB-0646             
1 55810U 23029Q   26072.22474759  .00000005  00000+0 -19148-4 0  9994
2 55810  87.9223 324.1002 0001962  85.0833 275.0523 13.19724246146238
ONEWEB-0648             
1 55811U 23029R   26072.20397763 -.00000015  00000+0 -75379-4 0  9992
2 55811  87.8979 308.8575 0002112 108.4544 251.6816 13.14502329146783
ONEWEB-0649             
1 55812U 23029S   26072.62910696  .00000046  00000+0  82497-4 0  9996
2 55812  87.9224 324.0168 0001788  90.7557 269.3781 13.19724928146324
ONEWEB-0650             
1 55813U 23029T   26072.24528305  .00000097  00000+0  20904-3 0  9997
2 55813  87.9224 324.0963 0002055  90.2929 269.8439 13.19724453146243
ONEWEB-0652             
1 55814U 23029U   26072.18494856  .00000300  00000+0  77418-3 0  9993
2 55814  87.8973 308.8764 0001572  76.5998 283.5307 13.14503117146759
ONEWEB-0653             
1 55815U 23029V   26072.62579529  .00000056  00000+0  11713-3 0  9998
2 55815  87.8981 308.7793 0001454  81.7744 278.3551 13.14502842146843
ONEWEB-0654             
1 55816U 23029W   26072.62103473 -.00000026  00000+0 -10388-3 0  9996
2 55816  87.8974 308.7790 0001416  71.4674 288.6610 13.14503158146862
ONEWEB-0656             
1 55817U 23029X   26072.59901728 -.00000010  00000+0 -57536-4 0  9992
2 55817  87.9164 293.5151 0001383  69.9764 290.1518 13.20770337148535
ONEWEB-0657             
1 55818U 23029Y   26072.61964236 -.00000015  00000+0 -69551-4 0  9994
2 55818  87.9223 324.0196 0002180  59.3459 300.7888 13.19725616146300
ONEWEB-0658             
1 55819U 23029Z   26072.61490341 -.00000005  00000+0 -44649-4 0  9996
2 55819  87.9230 323.9889 0002069  87.7704 272.3665 13.19724838146313
ONEWEB-0660             
1 55820U 23029AA  26072.59883331 -.00000177  00000+0 -51068-3 0  9992
2 55820  87.8983 308.7709 0001556  94.3396 265.7911 13.14503563146845
ONEWEB-0661             
1 55821U 23029AB  26072.63372071  .00000154  00000+0  37960-3 0  9990
2 55821  87.8970 308.8198 0001462  93.5130 266.6167 13.14503633146838
