[{"OBJECT_NAME":"ONEWEB-0642","OBJECT_ID":"2023-029L","EPOCH":"2026-03-13T15:28:40.217088","MEAN_MOTION":13.19723717,"ECCENTRICITY":0.00024145,"INCLINATION":87.9224,"RA_OF_ASC_NODE":324.0173,"ARG_OF_PERICENTER":95.1966,"MEAN_ANOMALY":264.9442,"EPHEMERIS_TYPE":0,"CLASSIFICATION_TYPE":"U","NORAD_CAT_ID":55806,"ELEMENT_SET_NO":999,"REV_AT_EPOCH":14630,"BSTAR":6.4319661e-5,"MEAN_MOTION_DOT":3.9e-7,"MEAN_MOTION_DDOT":0},{"OBJECT_NAME":"ONEWEB-0643","OBJECT_ID":"2023-029M","EPOCH":"2026-03-13T14:47:26.774304","MEAN_MOTION":13.14502815,"ECCENTRICITY":0.00023161,"INCLINATION":87.8976,"RA_OF_ASC_NODE":308.81,"ARG_OF_PERICENTER":87.8896,"MEAN_ANOMALY":272.2499,"EPHEMERIS_TYPE":0,"CLASSIFICATION_TYPE":"U","NORAD_CAT_ID":55807,"ELEMENT_SET_NO":999,"REV_AT_EPOCH":14683,"BSTAR":-0.00015277349,"MEAN_MOTION_DOT":-4.4e-7,"MEAN_MOTION_DDOT":0},{"OBJECT_NAME":"ONEWEB-0644","OBJECT_ID":"2023-029N","EPOCH":"2026-03-13T15:21:51.316992","MEAN_MOTION":13.19724822,"ECCENTRICITY":0.00020281,"INCLINATION":87.9213,"RA_OF_ASC_NODE":324.0256,"ARG_OF_PERICENTER":86.8385,"MEAN_ANOMALY":273.298,"EPHEMERIS_TYPE":0,"CLASSIFICATION_TYPE":"U","NORAD_CAT_ID":55808,"ELEMENT_SET_NO":999,"REV_AT_EPOCH":14630,"BSTAR":0.0001533292,"MEAN_MOTION_DOT":7.4e-7,"MEAN_MOTION_DDOT":0},{"OBJECT_NAME":"ONEWEB-0645","OBJECT_ID":"2023-029P","EPOCH":"2026-03-13T04:58:37.794432","MEAN_MOTION":13.19725607,"ECCENTRICITY":0.00017482,"INCLINATION":87.9224,"RA_OF_ASC_NODE":324.1037,"ARG_OF_PERICENTER":98.0097,"MEAN_ANOMALY":262.1234,"EPHEMERIS_TYPE":0,"CLASSIFICATION_TYPE":"U","NORAD_CAT_ID":55809,"ELEMENT_SET_NO":999,"REV_AT_EPOCH":14624,"BSTAR":0.00021223753,"MEAN_MOTION_DOT":9.8e-7,"MEAN_MOTION_DDOT":0},{"OBJECT_NAME":"ONEWEB-0646","OBJECT_ID":"2023-029Q","EPOCH":"2026-03-13T05:23:38.191776","MEAN_MOTION":13.19724246,"ECCENTRICITY":0.00019628,"INCLINATION":87.9223,"RA_OF_ASC_NODE":324.1002,"ARG_OF_PERICENTER":85.0833,"MEAN_ANOMALY":275.0523,"EPHEMERIS_TYPE":0,"CLASSIFICATION_TYPE":"U","NORAD_CAT_ID":55810,"ELEMENT_SET_NO":999,"REV_AT_EPOCH":14623,"BSTAR":-1.9147755e-5,"MEAN_MOTION_DOT":5.0e-8,"MEAN_MOTION_DDOT":0},{"OBJECT_NAME":"ONEWEB-0648","OBJECT_ID":"2023-029R","EPOCH":"2026-03-13T04:53:43.667232","MEAN_MOTION":13.14502329,"ECCENTRICITY":0.00021123,"INCLINATION":87.8979,"RA_OF_ASC_NODE":308.8575,"ARG_OF_PERICENTER":108.4544,"MEAN_ANOMALY":251.6816,"EPHEMERIS_TYPE":0,"CLASSIFICATION_TYPE":"U","NORAD_CAT_ID":55811,"ELEMENT_SET_NO":999,"REV_AT_EPOCH":14678,"BSTAR":-7.5378815e-5,"MEAN_MOTION_DOT":-1.5e-7,"MEAN_MOTION_DDOT":0},{"OBJECT_NAME":"ONEWEB-0649","OBJECT_ID":"2023-029S","EPOCH":"2026-03-13T15:05:54.841344","MEAN_MOTION":13.19724928,"ECCENTRICITY":0.00017884,"INCLINATION":87.9224,"RA_OF_ASC_NODE":324.0168,"ARG_OF_PERICENTER":90.7557,"MEAN_ANOMALY":269.3781,"EPHEMERIS_TYPE":0,"CLASSIFICATION_TYPE":"U","NORAD_CAT_ID":55812,"ELEMENT_SET_NO":999,"REV_AT_EPOCH":14632,"BSTAR":8.2497382e-5,"MEAN_MOTION_DOT":4.6e-7,"MEAN_MOTION_DDOT":0},{"OBJECT_NAME":"ONEWEB-0650","OBJECT_ID":"2023-029T","EPOCH":"2026-03-13T05:53:12.455520","MEAN_MOTION":13.19724453,"ECCENTRICITY":0.00020558,"INCLINATION":87.9224,"RA_OF_ASC_NODE":324.0963,"ARG_OF_PERICENTER":90.2929,"MEAN_ANOMALY":269.8439,"EPHEMERIS_TYPE":0,"CLASSIFICATION_TYPE":"U","NORAD_CAT_ID":55813,"ELEMENT_SET_NO":999,"REV_AT_EPOCH":14624,"BSTAR":0.00020904004,"MEAN_MOTION_DOT":9.7e-7,"MEAN_MOTION_DDOT":0},{"OBJECT_NAME":"ONEWEB-0652","OBJECT_ID":"2023-029U","EPOCH":"2026-03-13T04:26:19.555584","MEAN_MOTION":13.14503117,"ECCENTRICITY":0.00015727,"INCLINATION":87.8973,"RA_OF_ASC_NODE":308.8764,"ARG_OF_PERICENTER":76.5998,"MEAN_ANOMALY":283.5307,"EPHEMERIS_TYPE":0,"CLASSIFICATION_TYPE":"U","NORAD_CAT_ID":55814,"ELEMENT_SET_NO":999,"REV_AT_EPOCH":14675,"BSTAR":0.00077418362,"MEAN_MOTION_DOT":3.0e-6,"MEAN_MOTION_DDOT":0},{"OBJECT_NAME":"ONEWEB-0653","OBJECT_ID":"2023-029V","EPOCH":"2026-03-13T15:01:08.713056","MEAN_MOTION":13.14502842,"ECCENTRICITY":0.00014547,"INCLINATION":87.8981,"RA_OF_ASC_NODE":308.7793,"ARG_OF_PERICENTER":81.7744,"MEAN_ANOMALY":278.3551,"EPHEMERIS_TYPE":0,"CLASSIFICATION_TYPE":"U","NORAD_CAT_ID":55815,"ELEMENT_SET_NO":999,"REV_AT_EPOCH":14684,"BSTAR":0.00011713205,"MEAN_MOTION_DOT":5.6e-7,"MEAN_MOTION_DDOT":0},{"OBJECT_NAME":"ONEWEB-0654","OBJECT_ID":"2023-029W","EPOCH":"2026-03-13T14:54:17.400672","MEAN_MOTION":13.14503158,"ECCENTRICITY":0.00014169,"INCLINATION":87.8974,"RA_OF_ASC_NODE":308.779,"ARG_OF_PERICENTER":71.4674,"MEAN_ANOMALY":288.661,"EPHEMERIS_TYPE":0,"CLASSIFICATION_TYPE":"U","NORAD_CAT_ID":55816,"ELEMENT_SET_NO":999,"REV_AT_EPOCH":14686,"BSTAR":-0.00010388153,"MEAN_MOTION_DOT":-2.6e-7,"MEAN_MOTION_DDOT":0},{"OBJECT_NAME":"ONEWEB-0656","OBJECT_ID":"2023-029X","EPOCH":"2026-03-13T14:22:35.092992","MEAN_MOTION":13.20770337,"ECCENTRICITY":0.0001383,"INCLINATION":87.9164,"RA_OF_ASC_NODE":293.5151,"ARG_OF_PERICENTER":69.9764,"MEAN_ANOMALY":290.1518,"EPHEMERIS_TYPE":0,"CLASSIFICATION_TYPE":"U","NORAD_CAT_ID":55817,"ELEMENT_SET_NO":999,"REV_AT_EPOCH":14853,"BSTAR":-5.7536268e-5,"MEAN_MOTION_DOT":-1.0e-7,"MEAN_MOTION_DDOT":0},{"OBJECT_NAME":"ONEWEB-0657","OBJECT_ID":"2023-029Y","EPOCH":"2026-03-13T14:52:17.099904","MEAN_MOTION":13.19725616,"ECCENTRICITY":0.00021804,"INCLINATION":87.9223,"RA_OF_ASC_NODE":324.0196,"ARG_OF_PERICENTER":59.3459,"MEAN_ANOMALY":300.7888,"EPHEMERIS_TYPE":0,"CLASSIFICATION_TYPE":"U","NORAD_CAT_ID":55818,"ELEMENT_SET_NO":999,"REV_AT_EPOCH":14630,"BSTAR":-6.9550512e-5,"MEAN_MOTION_DOT":-1.5e-7,"MEAN_MOTION_DDOT":0},{"OBJECT_NAME":"ONEWEB-0658","OBJECT_ID":"2023-029Z","EPOCH":"2026-03-13T14:45:27.654624","MEAN_MOTION":13.19724838,"ECCENTRICITY":0.00020699,"INCLINATION":87.923,"RA_OF_ASC_NODE":323.9889,"ARG_OF_PERICENTER":87.7704,"MEAN_ANOMALY":272.3665,"EPHEMERIS_TYPE":0,"CLASSIFICATION_TYPE":"U","NORAD_CAT_ID":55819,"ELEMENT_SET_NO":999,"REV_AT_EPOCH":14631,"BSTAR":-4.4648807e-5,"MEAN_MOTION_DOT":-5.0e-8,"MEAN_MOTION_DDOT":0},{"OBJECT_NAME":"ONEWEB-0660","OBJECT_ID":"2023-029AA","EPOCH":"2026-03-13T14:22:19.197984","MEAN_MOTION":13.14503563,"ECCENTRICITY":0.0001556,"INCLINATION":87.8983,"RA_OF_ASC_NODE":308.7709,"ARG_OF_PERICENTER":94.3396,"MEAN_ANOMALY":265.7911,"EPHEMERIS_TYPE":0,"CLASSIFICATION_TYPE":"U","NORAD_CAT_ID":55820,"ELEMENT_SET_NO":999,"REV_AT_EPOCH":14684,"BSTAR":-0.00051068316,"MEAN_MOTION_DOT":-1.77e-6,"MEAN_MOTION_DDOT":0},{"OBJECT_NAME":"ONEWEB-0661","OBJECT_ID":"2023-029AB","EPOCH":"2026-03-13T15:12:33.469344","MEAN_MOTION":13.14503633,"ECCENTRICITY":0.00014625,"INCLINATION":87.897,"RA_OF_ASC_NODE":308.8198,"ARG_OF_PERICENTER":93.513,"MEAN_ANOMALY":266.6167,"EPHEMERIS_TYPE":0,"CLASSIFICATION_TYPE":"U","NORAD_CAT_ID":55821,"ELEMENT_SET_NO":999,"REV_AT_EPOCH":14683,"BSTAR":0.00037959593,"MEAN_MOTION_DOT":1.54e-6,"MEAN_MOTION_DDOT":0}]
